{"type": "FeatureCollection", "features": [ {"type": "Feature", "properties": {"norad_id": 66926, "name": "STARLINK-35942", "group": "last-30-days", "lat": -3.2052914263389134, "lon": -153.09713811691927, "alt_km": 319.0324801309598, "timestamp": "2025-12-17T21:39:44.493069+00:00", "meta": {"OBJECT_NAME": "STARLINK-35942", "OBJECT_ID": "2025-286B", "EPOCH": "2025-12-17T14:00:03.000384", "MEAN_MOTION": 15.85446023, "ECCENTRICITY": 8.023e-05, "INCLINATION": 53.1563, "RA_OF_ASC_NODE": 26.1065, "ARG_OF_PERICENTER": 71.4394, "MEAN_ANOMALY": 89.8465, "EPHEMERIS_TYPE": 0, "CLASSIFICATION_TYPE": "U", "NORAD_CAT_ID": 66926, "ELEMENT_SET_NO": 999, "REV_AT_EPOCH": 277, "BSTAR": -0.0056259881, "MEAN_MOTION_DOT": -0.01225037, "MEAN_MOTION_DDOT": 0}, "tle": {"line1": "1 66926U 25286B   25351.58336806 -.01225037  00000+0 -56260-2 0  9999", "line2": "2 66926  53.1563  26.1065 0000802  71.4394  89.8465 15.85446023  2776"}}, "geometry": {"type": "Point", "coordinates": [-153.09713811691927, -3.2052914263389134]}}, {"type": "Feature", "properties": {"norad_id": 66927, "name": "STARLINK-35943", "group": "last-30-days", "lat": -4.861142125656728, "lon": -151.851650515071, "alt_km": 319.313420827375, "timestamp": "2025-12-17T21:39:44.493079+00:00", "meta": {"OBJECT_NAME": "STARLINK-35943", "OBJECT_ID": "2025-286C", "EPOCH": "2025-12-17T14:00:03.000384", "MEAN_MOTION": 15.85477908, "ECCENTRICITY": 9.761e-05, "INCLINATION": 53.1564, "RA_OF_ASC_NODE": 26.1024, "ARG_OF_PERICENTER": 65.5485, "MEAN_ANOMALY": 97.7808, "EPHEMERIS_TYPE": 0, "CLASSIFICATION_TYPE": "U", "NORAD_CAT_ID": 66927, "ELEMENT_SET_NO": 999, "REV_AT_EPOCH": 277, "BSTAR": -0.0057158619, "MEAN_MOTION_DOT": -0.01244205, "MEAN_MOTION_DDOT": 0}, "tle": {"line1": "1 66927U 25286C   25351.58336806 -.01244205  00000+0 -57159-2 0  9996", "line2": "2 66927  53.1564  26.1024 0000976  65.5485  97.7808 15.85477908  2775"}}, "geometry": {"type": "Point", "coordinates": [-151.851650515071, -4.861142125656728]}}, {"type": "Feature", "properties": {"norad_id": 66928, "name": "STARLINK-35944", "group": "last-30-days", "lat": -1.518315657633892, "lon": -154.3606194423078, "alt_km": 318.8939998970127, "timestamp": "2025-12-17T21:39:44.493088+00:00", "meta": {"OBJECT_NAME": "STARLINK-35944", "OBJECT_ID": "2025-286D", "EPOCH": "2025-12-17T14:00:03.000384", "MEAN_MOTION": 15.85416143, "ECCENTRICITY": 9.008e-05, "INCLINATION": 53.1563, "RA_OF_ASC_NODE": 26.1108, "ARG_OF_PERICENTER": 68.9564, "MEAN_ANOMALY": 90.2454, "EPHEMERIS_TYPE": 0, "CLASSIFICATION_TYPE": "U", "NORAD_CAT_ID": 66928, "ELEMENT_SET_NO": 999, "REV_AT_EPOCH": 277, "BSTAR": -0.0055428317, "MEAN_MOTION_DOT": -0.01207404, "MEAN_MOTION_DDOT": 0}, "tle": {"line1": "1 66928U 25286D   25351.58336806 -.01207404  00000+0 -55428-2 0  9994", "line2": "2 66928  53.1563  26.1108 0000900  68.9564  90.2454 15.85416143  2779"}}, "geometry": {"type": "Point", "coordinates": [-154.3606194423078, -1.518315657633892]}}, {"type": "Feature", "properties": {"norad_id": 66929, "name": "STARLINK-36169", "group": "last-30-days", "lat": -6.643756086174869, "lon": -150.50221321034996, "alt_km": 319.473438351165, "timestamp": "2025-12-17T21:39:44.493098+00:00", "meta": {"OBJECT_NAME": "STARLINK-36169", "OBJECT_ID": "2025-286E", "EPOCH": "2025-12-17T14:00:03.000384", "MEAN_MOTION": 15.85502079, "ECCENTRICITY": 0.00010223, "INCLINATION": 53.1562, "RA_OF_ASC_NODE": 26.0976, "ARG_OF_PERICENTER": 65.0733, "MEAN_ANOMALY": 100.4708, "EPHEMERIS_TYPE": 0, "CLASSIFICATION_TYPE": "U", "NORAD_CAT_ID": 66929, "ELEMENT_SET_NO": 999, "REV_AT_EPOCH": 277, "BSTAR": -0.0058098525, "MEAN_MOTION_DOT": -0.01263655, "MEAN_MOTION_DDOT": 0}, "tle": {"line1": "1 66929U 25286E   25351.58336806 -.01263655  00000+0 -58099-2 0  9992", "line2": "2 66929  53.1562  26.0976 0001022  65.0733 100.4708 15.85502079  2773"}}, "geometry": {"type": "Point", "coordinates": [-150.50221321034996, -6.643756086174869]}}, {"type": "Feature", "properties": {"norad_id": 66930, "name": "STARLINK-36206", "group": "last-30-days", "lat": -8.255310282982979, "lon": -149.27149049259694, "alt_km": 319.6450202896467, "timestamp": "2025-12-17T21:39:44.493109+00:00", "meta": {"OBJECT_NAME": "STARLINK-36206", "OBJECT_ID": "2025-286F", "EPOCH": "2025-12-17T14:00:03.000384", "MEAN_MOTION": 15.85525247, "ECCENTRICITY": 0.00010015, "INCLINATION": 53.156, "RA_OF_ASC_NODE": 26.0932, "ARG_OF_PERICENTER": 62.5395, "MEAN_ANOMALY": 105.0061, "EPHEMERIS_TYPE": 0, "CLASSIFICATION_TYPE": "U", "NORAD_CAT_ID": 66930, "ELEMENT_SET_NO": 999, "REV_AT_EPOCH": 277, "BSTAR": -0.0058394884, "MEAN_MOTION_DOT": -0.01270613, "MEAN_MOTION_DDOT": 0}, "tle": {"line1": "1 66930U 25286F   25351.58336806 -.01270613  00000+0 -58395-2 0  9995", "line2": "2 66930  53.1560  26.0932 0001001  62.5395 105.0061 15.85525247  2773"}}, "geometry": {"type": "Point", "coordinates": [-149.27149049259694, -8.255310282982979]}}, {"type": "Feature", "properties": {"norad_id": 66931, "name": "STARLINK-36130", "group": "last-30-days", "lat": -10.070724823305953, "lon": -147.868847798197, "alt_km": 319.8477957692485, "timestamp": "2025-12-17T21:39:44.493118+00:00", "meta": {"OBJECT_NAME": "STARLINK-36130", "OBJECT_ID": "2025-286G", "EPOCH": "2025-12-17T14:00:03.000384", "MEAN_MOTION": 15.85546727, "ECCENTRICITY": 9.344e-05, "INCLINATION": 53.1561, "RA_OF_ASC_NODE": 26.0887, "ARG_OF_PERICENTER": 67.2878, "MEAN_ANOMALY": 102.5294, "EPHEMERIS_TYPE": 0, "CLASSIFICATION_TYPE": "U", "NORAD_CAT_ID": 66931, "ELEMENT_SET_NO": 999, "REV_AT_EPOCH": 277, "BSTAR": -0.0059322584, "MEAN_MOTION_DOT": -0.0128957, "MEAN_MOTION_DDOT": 0}, "tle": {"line1": "1 66931U 25286G   25351.58336806 -.01289570  00000+0 -59323-2 0  9990", "line2": "2 66931  53.1561  26.0887 0000934  67.2878 102.5294 15.85546727  2772"}}, "geometry": {"type": "Point", "coordinates": [-147.868847798197, -10.070724823305953]}}, {"type": "Feature", "properties": {"norad_id": 66932, "name": "STARLINK-36177", "group": "last-30-days", "lat": -11.837652792193554, "lon": -146.48414405029422, "alt_km": 320.085267891217, "timestamp": "2025-12-17T21:39:44.493127+00:00", "meta": {"OBJECT_NAME": "STARLINK-36177", "OBJECT_ID": "2025-286H", "EPOCH": "2025-12-17T14:00:03.000384", "MEAN_MOTION": 15.85560095, "ECCENTRICITY": 9.591e-05, "INCLINATION": 53.1561, "RA_OF_ASC_NODE": 26.084, "ARG_OF_PERICENTER": 62.5076, "MEAN_ANOMALY": 109.5308, "EPHEMERIS_TYPE": 0, "CLASSIFICATION_TYPE": "U", "NORAD_CAT_ID": 66932, "ELEMENT_SET_NO": 999, "REV_AT_EPOCH": 277, "BSTAR": -0.0059639392, "MEAN_MOTION_DOT": -0.012964, "MEAN_MOTION_DDOT": 0}, "tle": {"line1": "1 66932U 25286H   25351.58336806 -.01296400  00000+0 -59639-2 0  9991", "line2": "2 66932  53.1561  26.0840 0000959  62.5076 109.5308 15.85560095  2774"}}, "geometry": {"type": "Point", "coordinates": [-146.48414405029422, -11.837652792193554]}}, {"type": "Feature", "properties": {"norad_id": 66933, "name": "STARLINK-36157", "group": "last-30-days", "lat": -13.573659161361814, "lon": -145.100623002262, "alt_km": 320.196092575241, "timestamp": "2025-12-17T21:39:44.493136+00:00", "meta": {"OBJECT_NAME": "STARLINK-36157", "OBJECT_ID": "2025-286J", "EPOCH": "2025-12-17T14:00:03.000384", "MEAN_MOTION": 15.85575982, "ECCENTRICITY": 0.00010514, "INCLINATION": 53.1561, "RA_OF_ASC_NODE": 26.0795, "ARG_OF_PERICENTER": 66.621, "MEAN_ANOMALY": 107.6025, "EPHEMERIS_TYPE": 0, "CLASSIFICATION_TYPE": "U", "NORAD_CAT_ID": 66933, "ELEMENT_SET_NO": 999, "REV_AT_EPOCH": 277, "BSTAR": -0.0059929753, "MEAN_MOTION_DOT": -0.01302908, "MEAN_MOTION_DDOT": 0}, "tle": {"line1": "1 66933U 25286J   25351.58336806 -.01302908  00000+0 -59930-2 0  9997", "line2": "2 66933  53.1561  26.0795 0001051  66.6210 107.6025 15.85575982  2779"}}, "geometry": {"type": "Point", "coordinates": [-145.100623002262, -13.573659161361814]}}, {"type": "Feature", "properties": {"norad_id": 66934, "name": "STARLINK-36153", "group": "last-30-days", "lat": -15.313027102023554, "lon": -143.68796416202227, "alt_km": 320.36254168602136, "timestamp": "2025-12-17T21:39:44.493146+00:00", "meta": {"OBJECT_NAME": "STARLINK-36153", "OBJECT_ID": "2025-286K", "EPOCH": "2025-12-17T14:00:03.000384", "MEAN_MOTION": 15.85592764, "ECCENTRICITY": 9.474e-05, "INCLINATION": 53.156, "RA_OF_ASC_NODE": 26.0745, "ARG_OF_PERICENTER": 68.781, "MEAN_ANOMALY": 107.6471, "EPHEMERIS_TYPE": 0, "CLASSIFICATION_TYPE": "U", "NORAD_CAT_ID": 66934, "ELEMENT_SET_NO": 999, "REV_AT_EPOCH": 277, "BSTAR": -0.0060483472, "MEAN_MOTION_DOT": -0.01314375, "MEAN_MOTION_DDOT": 0}, "tle": {"line1": "1 66934U 25286K   25351.58336806 -.01314375  00000+0 -60483-2 0  9994", "line2": "2 66934  53.1560  26.0745 0000947  68.7810 107.6471 15.85592764  2778"}}, "geometry": {"type": "Point", "coordinates": [-143.68796416202227, -15.313027102023554]}}, {"type": "Feature", "properties": {"norad_id": 66935, "name": "STARLINK-36127", "group": "last-30-days", "lat": -17.230994069977406, "lon": -142.09310368094, "alt_km": 320.5599566380952, "timestamp": "2025-12-17T21:39:44.493155+00:00", "meta": {"OBJECT_NAME": "STARLINK-36127", "OBJECT_ID": "2025-286L", "EPOCH": "2025-12-17T14:00:03.000384", "MEAN_MOTION": 15.85597372, "ECCENTRICITY": 9.446e-05, "INCLINATION": 53.156, "RA_OF_ASC_NODE": 26.0696, "ARG_OF_PERICENTER": 68.694, "MEAN_ANOMALY": 110.1893, "EPHEMERIS_TYPE": 0, "CLASSIFICATION_TYPE": "U", "NORAD_CAT_ID": 66935, "ELEMENT_SET_NO": 999, "REV_AT_EPOCH": 277, "BSTAR": -0.0060690451, "MEAN_MOTION_DOT": -0.01318586, "MEAN_MOTION_DDOT": 0}, "tle": {"line1": "1 66935U 25286L   25351.58336806 -.01318586  00000+0 -60690-2 0  9993", "line2": "2 66935  53.1560  26.0696 0000944  68.6940 110.1893 15.85597372  2771"}}, "geometry": {"type": "Point", "coordinates": [-142.09310368094, -17.230994069977406]}}]}